<?xml version="1.0" encoding="UTF-8"?>
<ndm xmlns:xsi="http://www.w3.org/2001/XMLSchema-instance" xsi:noNamespaceSchemaLocation="https://sanaregistry.org/r/ndmxml_unqualified/ndmxml-2.0.0-master-2.0.xsd">
<omm id="CCSDS_OMM_VERS" version="2.0">
<header><CREATION_DATE/><ORIGINATOR/></header><body><segment><metadata><OBJECT_NAME>ONEWEB-0195</OBJECT_NAME><OBJECT_ID>2021-031AG</OBJECT_ID><CENTER_NAME>EARTH</CENTER_NAME><REF_FRAME>TEME</REF_FRAME><TIME_SYSTEM>UTC</TIME_SYSTEM><MEAN_ELEMENT_THEORY>SGP4</MEAN_ELEMENT_THEORY></metadata><data><meanElements><EPOCH>2024-02-06T06:03:02.608128</EPOCH><MEAN_MOTION>13.14501794</MEAN_MOTION><ECCENTRICITY>.000166</ECCENTRICITY><INCLINATION>87.8946</INCLINATION><RA_OF_ASC_NODE>101.2578</RA_OF_ASC_NODE><ARG_OF_PERICENTER>88.6584</ARG_OF_PERICENTER><MEAN_ANOMALY>271.4736</MEAN_ANOMALY></meanElements><tleParameters><EPHEMERIS_TYPE>0</EPHEMERIS_TYPE><CLASSIFICATION_TYPE>U</CLASSIFICATION_TYPE><NORAD_CAT_ID>48240</NORAD_CAT_ID><ELEMENT_SET_NO>999</ELEMENT_SET_NO><REV_AT_EPOCH>13491</REV_AT_EPOCH><BSTAR>.50792E-3</BSTAR><MEAN_MOTION_DOT>.201E-5</MEAN_MOTION_DOT><MEAN_MOTION_DDOT>0</MEAN_MOTION_DDOT></tleParameters></data></segment></body></omm>
<omm id="CCSDS_OMM_VERS" version="2.0">
<header><CREATION_DATE/><ORIGINATOR/></header><body><segment><metadata><OBJECT_NAME>ONEWEB-0201</OBJECT_NAME><OBJECT_ID>2021-031AH</OBJECT_ID><CENTER_NAME>EARTH</CENTER_NAME><REF_FRAME>TEME</REF_FRAME><TIME_SYSTEM>UTC</TIME_SYSTEM><MEAN_ELEMENT_THEORY>SGP4</MEAN_ELEMENT_THEORY></metadata><data><meanElements><EPOCH>2024-02-06T05:47:03.451488</EPOCH><MEAN_MOTION>13.14502174</MEAN_MOTION><ECCENTRICITY>.0001725</ECCENTRICITY><INCLINATION>87.8948</INCLINATION><RA_OF_ASC_NODE>101.2905</RA_OF_ASC_NODE><ARG_OF_PERICENTER>98.7535</ARG_OF_PERICENTER><MEAN_ANOMALY>261.3790</MEAN_ANOMALY></meanElements><tleParameters><EPHEMERIS_TYPE>0</EPHEMERIS_TYPE><CLASSIFICATION_TYPE>U</CLASSIFICATION_TYPE><NORAD_CAT_ID>48241</NORAD_CAT_ID><ELEMENT_SET_NO>999</ELEMENT_SET_NO><REV_AT_EPOCH>13514</REV_AT_EPOCH><BSTAR>.68378E-3</BSTAR><MEAN_MOTION_DOT>.266E-5</MEAN_MOTION_DOT><MEAN_MOTION_DDOT>0</MEAN_MOTION_DDOT></tleParameters></data></segment></body></omm>
<omm id="CCSDS_OMM_VERS" version="2.0">
<header><CREATION_DATE/><ORIGINATOR/></header><body><segment><metadata><OBJECT_NAME>ONEWEB-0207</OBJECT_NAME><OBJECT_ID>2021-031AJ</OBJECT_ID><CENTER_NAME>EARTH</CENTER_NAME><REF_FRAME>TEME</REF_FRAME><TIME_SYSTEM>UTC</TIME_SYSTEM><MEAN_ELEMENT_THEORY>SGP4</MEAN_ELEMENT_THEORY></metadata><data><meanElements><EPOCH>2024-02-05T16:30:06.873120</EPOCH><MEAN_MOTION>13.14505933</MEAN_MOTION><ECCENTRICITY>.0001641</ECCENTRICITY><INCLINATION>87.8948</INCLINATION><RA_OF_ASC_NODE>101.3682</RA_OF_ASC_NODE><ARG_OF_PERICENTER>108.3028</ARG_OF_PERICENTER><MEAN_ANOMALY>251.8280</MEAN_ANOMALY></meanElements><tleParameters><EPHEMERIS_TYPE>0</EPHEMERIS_TYPE><CLASSIFICATION_TYPE>U</CLASSIFICATION_TYPE><NORAD_CAT_ID>48242</NORAD_CAT_ID><ELEMENT_SET_NO>999</ELEMENT_SET_NO><REV_AT_EPOCH>13498</REV_AT_EPOCH><BSTAR>.11546E-3</BSTAR><MEAN_MOTION_DOT>.56E-6</MEAN_MOTION_DOT><MEAN_MOTION_DDOT>0</MEAN_MOTION_DDOT></tleParameters></data></segment></body></omm>
<omm id="CCSDS_OMM_VERS" version="2.0">
<header><CREATION_DATE/><ORIGINATOR/></header><body><segment><metadata><OBJECT_NAME>ONEWEB-0208</OBJECT_NAME><OBJECT_ID>2021-031AK</OBJECT_ID><CENTER_NAME>EARTH</CENTER_NAME><REF_FRAME>TEME</REF_FRAME><TIME_SYSTEM>UTC</TIME_SYSTEM><MEAN_ELEMENT_THEORY>SGP4</MEAN_ELEMENT_THEORY></metadata><data><meanElements><EPOCH>2024-02-05T16:03:50.588064</EPOCH><MEAN_MOTION>13.14502018</MEAN_MOTION><ECCENTRICITY>.0001762</ECCENTRICITY><INCLINATION>87.8948</INCLINATION><RA_OF_ASC_NODE>101.3869</RA_OF_ASC_NODE><ARG_OF_PERICENTER>94.2195</ARG_OF_PERICENTER><MEAN_ANOMALY>265.9136</MEAN_ANOMALY></meanElements><tleParameters><EPHEMERIS_TYPE>0</EPHEMERIS_TYPE><CLASSIFICATION_TYPE>U</CLASSIFICATION_TYPE><NORAD_CAT_ID>48243</NORAD_CAT_ID><ELEMENT_SET_NO>999</ELEMENT_SET_NO><REV_AT_EPOCH>13499</REV_AT_EPOCH><BSTAR>-.62432E-3</BSTAR><MEAN_MOTION_DOT>-.219E-5</MEAN_MOTION_DOT><MEAN_MOTION_DDOT>0</MEAN_MOTION_DDOT></tleParameters></data></segment></body></omm>
<omm id="CCSDS_OMM_VERS" version="2.0">
<header><CREATION_DATE/><ORIGINATOR/></header><body><segment><metadata><OBJECT_NAME>ONEWEB-0200</OBJECT_NAME><OBJECT_ID>2021-031AL</OBJECT_ID><CENTER_NAME>EARTH</CENTER_NAME><REF_FRAME>TEME</REF_FRAME><TIME_SYSTEM>UTC</TIME_SYSTEM><MEAN_ELEMENT_THEORY>SGP4</MEAN_ELEMENT_THEORY></metadata><data><meanElements><EPOCH>2024-02-06T05:48:12.339936</EPOCH><MEAN_MOTION>13.14501975</MEAN_MOTION><ECCENTRICITY>.0001799</ECCENTRICITY><INCLINATION>87.8946</INCLINATION><RA_OF_ASC_NODE>101.2723</RA_OF_ASC_NODE><ARG_OF_PERICENTER>94.1590</ARG_OF_PERICENTER><MEAN_ANOMALY>265.9746</MEAN_ANOMALY></meanElements><tleParameters><EPHEMERIS_TYPE>0</EPHEMERIS_TYPE><CLASSIFICATION_TYPE>U</CLASSIFICATION_TYPE><NORAD_CAT_ID>48244</NORAD_CAT_ID><ELEMENT_SET_NO>999</ELEMENT_SET_NO><REV_AT_EPOCH>13500</REV_AT_EPOCH><BSTAR>.69463E-3</BSTAR><MEAN_MOTION_DOT>.27E-5</MEAN_MOTION_DOT><MEAN_MOTION_DDOT>0</MEAN_MOTION_DDOT></tleParameters></data></segment></body></omm>
<omm id="CCSDS_OMM_VERS" version="2.0">
<header><CREATION_DATE/><ORIGINATOR/></header><body><segment><metadata><OBJECT_NAME>ONEWEB-0217</OBJECT_NAME><OBJECT_ID>2021-031AM</OBJECT_ID><CENTER_NAME>EARTH</CENTER_NAME><REF_FRAME>TEME</REF_FRAME><TIME_SYSTEM>UTC</TIME_SYSTEM><MEAN_ELEMENT_THEORY>SGP4</MEAN_ELEMENT_THEORY></metadata><data><meanElements><EPOCH>2024-02-05T17:23:46.474944</EPOCH><MEAN_MOTION>13.14501664</MEAN_MOTION><ECCENTRICITY>.0001835</ECCENTRICITY><INCLINATION>87.8947</INCLINATION><RA_OF_ASC_NODE>101.3599</RA_OF_ASC_NODE><ARG_OF_PERICENTER>89.5299</ARG_OF_PERICENTER><MEAN_ANOMALY>270.6041</MEAN_ANOMALY></meanElements><tleParameters><EPHEMERIS_TYPE>0</EPHEMERIS_TYPE><CLASSIFICATION_TYPE>U</CLASSIFICATION_TYPE><NORAD_CAT_ID>48245</NORAD_CAT_ID><ELEMENT_SET_NO>999</ELEMENT_SET_NO><REV_AT_EPOCH>13487</REV_AT_EPOCH><BSTAR>-.20192E-3</BSTAR><MEAN_MOTION_DOT>-.62E-6</MEAN_MOTION_DOT><MEAN_MOTION_DDOT>0</MEAN_MOTION_DDOT></tleParameters></data></segment></body></omm>
<omm id="CCSDS_OMM_VERS" version="2.0">
<header><CREATION_DATE/><ORIGINATOR/></header><body><segment><metadata><OBJECT_NAME>ONEWEB-0211</OBJECT_NAME><OBJECT_ID>2021-045A</OBJECT_ID><CENTER_NAME>EARTH</CENTER_NAME><REF_FRAME>TEME</REF_FRAME><TIME_SYSTEM>UTC</TIME_SYSTEM><MEAN_ELEMENT_THEORY>SGP4</MEAN_ELEMENT_THEORY></metadata><data><meanElements><EPOCH>2024-02-05T14:31:05.320416</EPOCH><MEAN_MOTION>13.15547413</MEAN_MOTION><ECCENTRICITY>.0001853</ECCENTRICITY><INCLINATION>87.8949</INCLINATION><RA_OF_ASC_NODE>70.8728</RA_OF_ASC_NODE><ARG_OF_PERICENTER>94.8176</ARG_OF_PERICENTER><MEAN_ANOMALY>265.3165</MEAN_ANOMALY></meanElements><tleParameters><EPHEMERIS_TYPE>0</EPHEMERIS_TYPE><CLASSIFICATION_TYPE>U</CLASSIFICATION_TYPE><NORAD_CAT_ID>48767</NORAD_CAT_ID><ELEMENT_SET_NO>999</ELEMENT_SET_NO><REV_AT_EPOCH>13100</REV_AT_EPOCH><BSTAR>.24589E-3</BSTAR><MEAN_MOTION_DOT>.105E-5</MEAN_MOTION_DOT><MEAN_MOTION_DDOT>0</MEAN_MOTION_DDOT></tleParameters></data></segment></body></omm>
<omm id="CCSDS_OMM_VERS" version="2.0">
<header><CREATION_DATE/><ORIGINATOR/></header><body><segment><metadata><OBJECT_NAME>ONEWEB-0223</OBJECT_NAME><OBJECT_ID>2021-045B</OBJECT_ID><CENTER_NAME>EARTH</CENTER_NAME><REF_FRAME>TEME</REF_FRAME><TIME_SYSTEM>UTC</TIME_SYSTEM><MEAN_ELEMENT_THEORY>SGP4</MEAN_ELEMENT_THEORY></metadata><data><meanElements><EPOCH>2024-02-06T11:07:46.672032</EPOCH><MEAN_MOTION>13.15548642</MEAN_MOTION><ECCENTRICITY>.0002576</ECCENTRICITY><INCLINATION>87.8953</INCLINATION><RA_OF_ASC_NODE>70.7040</RA_OF_ASC_NODE><ARG_OF_PERICENTER>87.1207</ARG_OF_PERICENTER><MEAN_ANOMALY>273.0218</MEAN_ANOMALY></meanElements><tleParameters><EPHEMERIS_TYPE>0</EPHEMERIS_TYPE><CLASSIFICATION_TYPE>U</CLASSIFICATION_TYPE><NORAD_CAT_ID>48768</NORAD_CAT_ID><ELEMENT_SET_NO>999</ELEMENT_SET_NO><REV_AT_EPOCH>13224</REV_AT_EPOCH><BSTAR>.39042E-3</BSTAR><MEAN_MOTION_DOT>.16E-5</MEAN_MOTION_DOT><MEAN_MOTION_DDOT>0</MEAN_MOTION_DDOT></tleParameters></data></segment></body></omm>

</ndm>
