ONEWEB-0195             
1 48240U 21031AG  24037.25211352  .00000201  00000+0  50792-3 0  9990
2 48240  87.8946 101.2578 0001660  88.6584 271.4736 13.14501794134911
ONEWEB-0201             
1 48241U 21031AH  24037.24101217  .00000266  00000+0  68378-3 0  9998
2 48241  87.8948 101.2905 0001725  98.7535 261.3790 13.14502174135145
ONEWEB-0207             
1 48242U 21031AJ  24036.68757955  .00000056  00000+0  11546-3 0  9994
2 48242  87.8948 101.3682 0001641 108.3028 251.8280 13.14505933134986
ONEWEB-0208             
1 48243U 21031AK  24036.66933551 -.00000219  00000+0 -62432-3 0  9994
2 48243  87.8948 101.3869 0001762  94.2195 265.9136 13.14502018134994
ONEWEB-0200             
1 48244U 21031AL  24037.24180949  .00000270  00000+0  69463-3 0  9991
2 48244  87.8946 101.2723 0001799  94.1590 265.9746 13.14501975135000
ONEWEB-0217             
1 48245U 21031AM  24036.72484346 -.00000062  00000+0 -20192-3 0  9999
2 48245  87.8947 101.3599 0001835  89.5299 270.6041 13.14501664134879
ONEWEB-0211             
1 48767U 21045A   24036.60492269  .00000105  00000+0  24589-3 0  9993
2 48767  87.8949  70.8728 0001853  94.8176 265.3165 13.15547413131000
ONEWEB-0223             
1 48768U 21045B   24037.46373463  .00000160  00000+0  39042-3 0  9994
2 48768  87.8953  70.7040 0002576  87.1207 273.0218 13.15548642132242
